{"type": "FeatureCollection", "features": [ {"type": "Feature", "properties": {"norad_id": 36442, "name": "COSMOS 2251 DEB", "group": "cosmos-2251-debris", "lat": -21.53035162457182, "lon": 2.26987303890861, "alt_km": 463.91421461591926, "timestamp": "2025-12-26T22:28:06.182886+00:00", "meta": {"OBJECT_NAME": "COSMOS 2251 DEB", "OBJECT_ID": "1993-036BAR", "EPOCH": "2025-12-21T18:51:31.867200", "MEAN_MOTION": 15.32486394, "ECCENTRICITY": 0.00080169, "INCLINATION": 73.9482, "RA_OF_ASC_NODE": 19.8637, "ARG_OF_PERICENTER": 316.0651, "MEAN_ANOMALY": 43.9914, "EPHEMERIS_TYPE": 0, "CLASSIFICATION_TYPE": "U", "NORAD_CAT_ID": 36442, "ELEMENT_SET_NO": 999, "REV_AT_EPOCH": 86054, "BSTAR": 0.0050536247, "MEAN_MOTION_DOT": 0.00162161, "MEAN_MOTION_DDOT": 0}, "tle": {"line1": "1 36442U 93036BAR 25355.78578550  .00162161  00000+0  50536-2 0  9992", "line2": "2 36442  73.9482  19.8637 0008016 316.0651  43.9914 15.32486394860543"}}, "geometry": {"type": "Point", "coordinates": [2.26987303890861, -21.53035162457182]}}, {"type": "Feature", "properties": {"norad_id": 36451, "name": "COSMOS 2251 DEB", "group": "cosmos-2251-debris", "lat": -17.718819400801554, "lon": 135.02241192865262, "alt_km": 780.9965049866651, "timestamp": "2025-12-26T22:28:06.182896+00:00", "meta": {"OBJECT_NAME": "COSMOS 2251 DEB", "OBJECT_ID": "1993-036BBA", "EPOCH": "2025-12-17T15:51:47.903904", "MEAN_MOTION": 14.18761243, "ECCENTRICITY": 0.01833733, "INCLINATION": 73.9538, "RA_OF_ASC_NODE": 326.3887, "ARG_OF_PERICENTER": 149.6881, "MEAN_ANOMALY": 211.5024, "EPHEMERIS_TYPE": 0, "CLASSIFICATION_TYPE": "U", "NORAD_CAT_ID": 36451, "ELEMENT_SET_NO": 999, "REV_AT_EPOCH": 84295, "BSTAR": 0.0004725236, "MEAN_MOTION_DOT": 1.135e-05, "MEAN_MOTION_DDOT": 0}, "tle": {"line1": "1 36451U 93036BBA 25351.66097111  .00001135  00000+0  47252-3 0  9999", "line2": "2 36451  73.9538 326.3887 0183373 149.6881 211.5024 14.18761243842955"}}, "geometry": {"type": "Point", "coordinates": [135.02241192865262, -17.718819400801554]}}, {"type": "Feature", "properties": {"norad_id": 36453, "name": "COSMOS 2251 DEB", "group": "cosmos-2251-debris", "lat": 19.92376217673762, "lon": 131.43239080954837, "alt_km": 666.5381168987087, "timestamp": "2025-12-26T22:28:06.182906+00:00", "meta": {"OBJECT_NAME": "COSMOS 2251 DEB", "OBJECT_ID": "1993-036BBC", "EPOCH": "2025-12-24T15:52:54.435360", "MEAN_MOTION": 14.52685081, "ECCENTRICITY": 0.00706677, "INCLINATION": 73.9241, "RA_OF_ASC_NODE": 129.7501, "ARG_OF_PERICENTER": 29.7309, "MEAN_ANOMALY": 341.3832, "EPHEMERIS_TYPE": 0, "CLASSIFICATION_TYPE": "U", "NORAD_CAT_ID": 36453, "ELEMENT_SET_NO": 999, "REV_AT_EPOCH": 84641, "BSTAR": 0.00085702577, "MEAN_MOTION_DOT": 3.602e-05, "MEAN_MOTION_DDOT": 0}, "tle": {"line1": "1 36453U 93036BBC 25358.66174115  .00003602  00000+0  85703-3 0  9992", "line2": "2 36453  73.9241 129.7501 0070667  29.7309 341.3832 14.52685081846417"}}, "geometry": {"type": "Point", "coordinates": [131.43239080954837, 19.92376217673762]}}, {"type": "Feature", "properties": {"norad_id": 36459, "name": "COSMOS 2251 DEB", "group": "cosmos-2251-debris", "lat": 38.64453229766727, "lon": -12.628623117195191, "alt_km": 726.7240650357444, "timestamp": "2025-12-26T22:28:06.182916+00:00", "meta": {"OBJECT_NAME": "COSMOS 2251 DEB", "OBJECT_ID": "1993-036BBJ", "EPOCH": "2025-12-20T06:23:01.272480", "MEAN_MOTION": 14.26454896, "ECCENTRICITY": 0.0113312, "INCLINATION": 74.0464, "RA_OF_ASC_NODE": 346.1968, "ARG_OF_PERICENTER": 79.9168, "MEAN_ANOMALY": 281.4741, "EPHEMERIS_TYPE": 0, "CLASSIFICATION_TYPE": "U", "NORAD_CAT_ID": 36459, "ELEMENT_SET_NO": 999, "REV_AT_EPOCH": 7989, "BSTAR": 0.00092616994, "MEAN_MOTION_DOT": 2.362e-05, "MEAN_MOTION_DDOT": 0}, "tle": {"line1": "1 36459U 93036BBJ 25354.26598695  .00002362  00000+0  92617-3 0  9997", "line2": "2 36459  74.0464 346.1968 0113312  79.9168 281.4741 14.26454896 79891"}}, "geometry": {"type": "Point", "coordinates": [-12.628623117195191, 38.64453229766727]}}, {"type": "Feature", "properties": {"norad_id": 36470, "name": "COSMOS 2251 DEB", "group": "cosmos-2251-debris", "lat": -67.40713901174145, "lon": -179.31282557479088, "alt_km": 556.4557535141594, "timestamp": "2025-12-26T22:28:06.182927+00:00", "meta": {"OBJECT_NAME": "COSMOS 2251 DEB", "OBJECT_ID": "1993-036BBV", "EPOCH": "2025-12-26T08:28:18.716160", "MEAN_MOTION": 15.08569547, "ECCENTRICITY": 0.0022973, "INCLINATION": 73.8424, "RA_OF_ASC_NODE": 226.0683, "ARG_OF_PERICENTER": 52.6563, "MEAN_ANOMALY": 307.6715, "EPHEMERIS_TYPE": 0, "CLASSIFICATION_TYPE": "U", "NORAD_CAT_ID": 36470, "ELEMENT_SET_NO": 999, "REV_AT_EPOCH": 66299, "BSTAR": 0.0027177, "MEAN_MOTION_DOT": 0.00042951, "MEAN_MOTION_DDOT": 0}, "tle": {"line1": "1 36470U 93036BBV 25360.35299440  .00042951  00000+0  27177-2 0  9999", "line2": "2 36470  73.8424 226.0683 0022973  52.6563 307.6715 15.08569547662998"}}, "geometry": {"type": "Point", "coordinates": [-179.31282557479088, -67.40713901174145]}}, {"type": "Feature", "properties": {"norad_id": 36528, "name": "COSMOS 2251 DEB", "group": "cosmos-2251-debris", "lat": 9.740196359188454, "lon": 122.16957391047899, "alt_km": 845.2875472135756, "timestamp": "2025-12-26T22:28:06.182937+00:00", "meta": {"OBJECT_NAME": "COSMOS 2251 DEB", "OBJECT_ID": "1993-036BCN", "EPOCH": "2025-12-25T14:32:07.404000", "MEAN_MOTION": 14.30715983, "ECCENTRICITY": 0.0084121, "INCLINATION": 74.0177, "RA_OF_ASC_NODE": 121.7735, "ARG_OF_PERICENTER": 168.3638, "MEAN_ANOMALY": 191.9483, "EPHEMERIS_TYPE": 0, "CLASSIFICATION_TYPE": "U", "NORAD_CAT_ID": 36528, "ELEMENT_SET_NO": 999, "REV_AT_EPOCH": 64611, "BSTAR": 0.0012336, "MEAN_MOTION_DOT": 3.33e-05, "MEAN_MOTION_DDOT": 0}, "tle": {"line1": "1 36528U 93036BCN 25359.60564125  .00003330  00000+0  12336-2 0  9993", "line2": "2 36528  74.0177 121.7735 0084121 168.3638 191.9483 14.30715983646113"}}, "geometry": {"type": "Point", "coordinates": [122.16957391047899, 9.740196359188454]}}, {"type": "Feature", "properties": {"norad_id": 36533, "name": "COSMOS 2251 DEB", "group": "cosmos-2251-debris", "lat": 61.93241058096863, "lon": 120.662560077098, "alt_km": 753.8855694918748, "timestamp": "2025-12-26T22:28:06.182947+00:00", "meta": {"OBJECT_NAME": "COSMOS 2251 DEB", "OBJECT_ID": "1993-036BCT", "EPOCH": "2025-12-24T23:47:29.202144", "MEAN_MOTION": 14.49859831, "ECCENTRICITY": 0.00492005, "INCLINATION": 74.0122, "RA_OF_ASC_NODE": 91.7921, "ARG_OF_PERICENTER": 238.8301, "MEAN_ANOMALY": 120.8031, "EPHEMERIS_TYPE": 0, "CLASSIFICATION_TYPE": "U", "NORAD_CAT_ID": 36533, "ELEMENT_SET_NO": 999, "REV_AT_EPOCH": 84662, "BSTAR": 0.00052465602, "MEAN_MOTION_DOT": 2.029e-05, "MEAN_MOTION_DDOT": 0}, "tle": {"line1": "1 36533U 93036BCT 25358.99131021  .00002029  00000+0  52466-3 0  9998", "line2": "2 36533  74.0122  91.7921 0049200 238.8301 120.8031 14.49859831846620"}}, "geometry": {"type": "Point", "coordinates": [120.662560077098, 61.93241058096863]}}, {"type": "Feature", "properties": {"norad_id": 36539, "name": "COSMOS 2251 DEB", "group": "cosmos-2251-debris", "lat": 31.559110361952104, "lon": 38.23179367318349, "alt_km": 706.6497606805442, "timestamp": "2025-12-26T22:28:06.182957+00:00", "meta": {"OBJECT_NAME": "COSMOS 2251 DEB", "OBJECT_ID": "1993-036BCZ", "EPOCH": "2025-12-26T12:26:44.853216", "MEAN_MOTION": 14.59382083, "ECCENTRICITY": 0.0026225, "INCLINATION": 74.0233, "RA_OF_ASC_NODE": 28.893, "ARG_OF_PERICENTER": 171.2932, "MEAN_ANOMALY": 188.8694, "EPHEMERIS_TYPE": 0, "CLASSIFICATION_TYPE": "U", "NORAD_CAT_ID": 36539, "ELEMENT_SET_NO": 999, "REV_AT_EPOCH": 84148, "BSTAR": 0.00061741, "MEAN_MOTION_DOT": 2.908e-05, "MEAN_MOTION_DDOT": 0}, "tle": {"line1": "1 36539U 93036BCZ 25360.51857469  .00002908  00000+0  61741-3 0  9998", "line2": "2 36539  74.0233  28.8930 0026225 171.2932 188.8694 14.59382083841481"}}, "geometry": {"type": "Point", "coordinates": [38.23179367318349, 31.559110361952104]}}, {"type": "Feature", "properties": {"norad_id": 36540, "name": "COSMOS 2251 DEB", "group": "cosmos-2251-debris", "lat": -43.17705368750846, "lon": 137.88987899993734, "alt_km": 704.1379047584905, "timestamp": "2025-12-26T22:28:06.182968+00:00", "meta": {"OBJECT_NAME": "COSMOS 2251 DEB", "OBJECT_ID": "1993-036BDA", "EPOCH": "2025-12-26T11:09:13.624128", "MEAN_MOTION": 14.5861913, "ECCENTRICITY": 0.001455, "INCLINATION": 74.0286, "RA_OF_ASC_NODE": 154.376, "ARG_OF_PERICENTER": 224.4343, "MEAN_ANOMALY": 135.5655, "EPHEMERIS_TYPE": 0, "CLASSIFICATION_TYPE": "U", "NORAD_CAT_ID": 36540, "ELEMENT_SET_NO": 999, "REV_AT_EPOCH": 86210, "BSTAR": 0.0013004, "MEAN_MOTION_DOT": 6.04e-05, "MEAN_MOTION_DDOT": 0}, "tle": {"line1": "1 36540U 93036BDA 25360.46474102  .00006040  00000+0  13004-2 0  9992", "line2": "2 36540  74.0286 154.3760 0014550 224.4343 135.5655 14.58619130862105"}}, "geometry": {"type": "Point", "coordinates": [137.88987899993734, -43.17705368750846]}}, {"type": "Feature", "properties": {"norad_id": 36550, "name": "COSMOS 2251 DEB", "group": "cosmos-2251-debris", "lat": -4.480614891083235, "lon": 165.7792524519836, "alt_km": 847.3649764336724, "timestamp": "2025-12-26T22:28:06.182978+00:00", "meta": {"OBJECT_NAME": "COSMOS 2251 DEB", "OBJECT_ID": "1993-036BDL", "EPOCH": "2025-12-23T05:19:51.847104", "MEAN_MOTION": 14.27229725, "ECCENTRICITY": 0.00778519, "INCLINATION": 74.0443, "RA_OF_ASC_NODE": 173.7801, "ARG_OF_PERICENTER": 222.1192, "MEAN_ANOMALY": 137.3958, "EPHEMERIS_TYPE": 0, "CLASSIFICATION_TYPE": "U", "NORAD_CAT_ID": 36550, "ELEMENT_SET_NO": 999, "REV_AT_EPOCH": 84745, "BSTAR": 0.00062346046, "MEAN_MOTION_DOT": 1.548e-05, "MEAN_MOTION_DDOT": 0}, "tle": {"line1": "1 36550U 93036BDL 25357.22212786  .00001548  00000+0  62346-3 0  9993", "line2": "2 36550  74.0443 173.7801 0077851 222.1192 137.3958 14.27229725847452"}}, "geometry": {"type": "Point", "coordinates": [165.7792524519836, -4.480614891083235]}}]}